[{"OBJECT_NAME":"STARLINK-33588","OBJECT_ID":"2025-015Z","EPOCH":"2026-03-09T23:13:57.069696","MEAN_MOTION":15.30204109,"ECCENTRICITY":7.75e-5,"INCLINATION":53.1594,"RA_OF_ASC_NODE":318.9776,"ARG_OF_PERICENTER":95.2611,"MEAN_ANOMALY":264.8478,"EPHEMERIS_TYPE":0,"CLASSIFICATION_TYPE":"U","NORAD_CAT_ID":62781,"ELEMENT_SET_NO":999,"REV_AT_EPOCH":6455,"BSTAR":0.00065992311,"MEAN_MOTION_DOT":0.00019239,"MEAN_MOTION_DDOT":0},{"OBJECT_NAME":"ELECTRON KICK STAGE R\/B","OBJECT_ID":"2025-061J","EPOCH":"2026-03-09T21:50:35.145600","MEAN_MOTION":15.31602074,"ECCENTRICITY":0.00402669,"INCLINATION":97.5479,"RA_OF_ASC_NODE":52.3854,"ARG_OF_PERICENTER":150.2628,"MEAN_ANOMALY":210.0914,"EPHEMERIS_TYPE":0,"CLASSIFICATION_TYPE":"U","NORAD_CAT_ID":63359,"ELEMENT_SET_NO":999,"REV_AT_EPOCH":5306,"BSTAR":0.0006963674,"MEAN_MOTION_DOT":0.00021749,"MEAN_MOTION_DDOT":0}]
